NORAD_CAT_ID,OBJECT_NAME,OBJECT_TYPE,EPOCH,MEAN_MOTION,ECCENTRICITY,INCLINATION,RA_OF_ASC_NODE,ARG_OF_PERICENTER,MEAN_ANOMALY,BSTAR,MEAN_MOTION_DOT,MEAN_MOTION_DDOT,TLE_LINE0,TLE_LINE1,TLE_LINE2,SEMIMAJOR_AXIS,PERIOD,APOGEE,PERIGEE,DECAYED
53890.0,STARLINK-5050,PAYLOAD,2023-11-18 03:37:32,15.08837722,0.0001426,53.2164,111.2067,86.8468,273.2687,5.0704e-05,5.19e-06,0.0,0 STARLINK-5050,1 53890U 22119E   23322.15106866  .00000519  00000-0  50704-4 0  9990,2 53890  53.2164 111.2067 0001426  86.8468 273.2687 15.08837722 64984,6917.887,95.438,540.739,538.766,0.0
53890.0,STARLINK-5050,PAYLOAD,2023-11-18 19:31:23,15.08840417,0.0001413,53.216,108.2332,86.2762,273.8392,5.6193e-05,6.06e-06,0.0,0 STARLINK-5050,1 53890U 22119E   23322.81346728  .00000606  00000-0  56193-4 0  9991,2 53890  53.2160 108.2332 0001413  86.2762 273.8392 15.08840417 64667,6917.879,95.438,540.722,538.767,0.0
53890.0,STARLINK-5050,PAYLOAD,2023-11-19 13:00:38,15.08840598,0.0001416,53.2166,104.9623,85.9665,274.1489,7.2645e-05,8.68e-06,0.0,0 STARLINK-5050,1 53890U 22119E   23323.54210668  .00000868  00000-0  72645-4 0  9995,2 53890  53.2166 104.9623 0001416  85.9665 274.1489 15.08840598 65190,6917.879,95.438,540.723,538.764,0.0
53890.0,STARLINK-5050,PAYLOAD,2023-11-19 16:11:24,15.08842892,0.0001407,53.2163,104.366,93.3364,266.7789,9.5623e-05,1.234e-05,0.0,0 STARLINK-5050,1 53890U 22119E   23323.67458418  .00001234  00000-0  95623-4 0  9995,2 53890  53.2163 104.3660 0001407  93.3364 266.7789 15.08842892 65213,6917.872,95.437,540.71,538.763,0.0
53890.0,STARLINK-5050,PAYLOAD,2023-11-20 08:05:15,15.08838712,0.000142,53.2167,101.3923,96.0213,264.0941,2.6506e-05,1.34e-06,0.0,0 STARLINK-5050,1 53890U 22119E   23324.33698875  .00000134  00000-0  26506-4 0  9994,2 53890  53.2167 101.3923 0001420  96.0213 264.0941 15.08838712 64894,6917.884,95.438,540.732,538.767,0.0
53890.0,STARLINK-5050,PAYLOAD,2023-11-20 14:26:48,15.08838965,0.0001423,53.2174,100.2029,96.2101,263.9053,2.4654e-05,1.04e-06,0.0,0 STARLINK-5050,1 53890U 22119E   23324.60194886  .00000104  00000-0  24654-4 0  9996,2 53890  53.2174 100.2029 0001423  96.2101 263.9053 15.08838965 65352,6917.884,95.438,540.733,538.764,0.0
53890.0,STARLINK-5050,PAYLOAD,2023-11-20 16:02:11,15.08842071,0.0001329,53.2173,99.9073,87.8972,272.2173,2.4564e-05,1.03e-06,0.0,0 STARLINK-5050,1 53890U 22119E   23324.66818752  .00000103  00000-0  24564-4 0  9996,2 53890  53.2173  99.9073 0001329  87.8972 272.2173 15.08842071 65361,6917.874,95.437,540.658,538.82,0.0
53890.0,STARLINK-5050,PAYLOAD,2023-11-21 09:31:26,15.08839915,0.000131,53.2175,96.6367,86.2964,273.8178,2.9483e-05,1.81e-06,0.0,0 STARLINK-5050,1 53890U 22119E   23325.39682906  .00000181  00000-0  29483-4 0  9998,2 53890  53.2175  96.6367 0001310  86.2964 273.8178 15.08839915 65058,6917.881,95.438,540.652,538.839,0.0
53890.0,STARLINK-5050,PAYLOAD,2023-11-21 12:42:12,15.08842896,0.0001348,53.2177,96.0415,87.0394,273.0753,4.7096e-05,4.62e-06,0.0,0 STARLINK-5050,1 53890U 22119E   23325.52930696  .00000462  00000-0  47096-4 0  9997,2 53890  53.2177  96.0415 0001348  87.0394 273.0753 15.08842896 65496,6917.872,95.437,540.669,538.804,0.0
53890.0,STARLINK-5050,PAYLOAD,2023-11-21 17:28:21,15.08846116,0.0001342,53.2179,95.1506,85.4278,274.6867,8.3412e-05,1.04e-05,0.0,0 STARLINK-5050,1 53890U 22119E   23325.72802372  .00001040  00000-0  83412-4 0  9993,2 53890  53.2179  95.1506 0001342  85.4278 274.6867 15.08846116 65522,6917.862,95.437,540.655,538.798,0.0
53890.0,STARLINK-5050,PAYLOAD,2023-11-22 14:08:22,15.08833774,0.0001343,53.2186,91.2801,101.3691,258.7452,0.00018196,2.609e-05,0.0,0 STARLINK-5050,1 53890U 22119E   23326.58914870  .00002609  00000-0  18196-3 0  9993,2 53890  53.2186  91.2801 0001343 101.3691 258.7452 15.08833774 65656,6917.899,95.438,540.693,538.835,0.0
53890.0,STARLINK-5050,PAYLOAD,2023-11-22 18:54:31,15.08840095,0.0001291,53.2185,90.3854,114.935,245.1776,0.0001956,2.826e-05,0.0,0 STARLINK-5050,1 53890U 22119E   23326.78786341  .00002826  00000-0  19560-3 0  9992,2 53890  53.2185  90.3854 0001291 114.9350 245.1776 15.08840095 65267,6917.88,95.438,540.638,538.852,0.0
53890.0,STARLINK-5050,PAYLOAD,2023-11-23 13:59:10,15.08829867,0.0001495,53.2194,86.8176,94.2314,265.885,-7.4478e-05,-1.473e-05,0.0,0 STARLINK-5050,1 53890U 22119E   23327.58276215 -.00001473  00000-0 -74478-4 0  9994,2 53890  53.2194  86.8176 0001495  94.2314 265.8850 15.08829867 65806,6917.911,95.438,540.811,538.742,0.0
53890.0,STARLINK-5050,PAYLOAD,2023-11-23 17:09:56,15.08831371,0.0001499,53.2191,86.2228,79.853,280.2631,-5.9806e-05,-1.239e-05,0.0,0 STARLINK-5050,1 53890U 22119E   23327.71524218 -.00001239  00000-0 -59806-4 0  9996,2 53890  53.2191  86.2228 0001499  79.8530 280.2631 15.08831371 65405,6917.907,95.438,540.809,538.735,0.0
53890.0,STARLINK-5050,PAYLOAD,2023-11-24 10:39:10,15.08841979,0.0001431,53.2166,82.9564,87.2888,272.8267,0.00010607,1.401e-05,0.0,0 STARLINK-5050,1 53890U 22119E   23328.44387668  .00001401  00000-0  10607-3 0  9997,2 53890  53.2166  82.9564 0001431  87.2888 272.8267 15.08841979 65517,6917.874,95.437,540.729,538.749,0.0
53890.0,STARLINK-5050,PAYLOAD,2023-11-24 13:49:57,15.08846751,0.0001419,53.2168,82.362,84.0431,276.0723,0.0002022,2.932e-05,0.0,0 STARLINK-5050,1 53890U 22119E   23328.57635518  .00002932  00000-0  20220-3 0  9993,2 53890  53.2168  82.3620 0001419  84.0431 276.0723 15.08846751 65955,6917.86,95.437,540.706,538.743,0.0
53890.0,STARLINK-5050,PAYLOAD,2023-11-24 20:11:29,15.08865225,0.0001479,53.216,81.1722,69.017,291.098,0.0013446,0.00021191,0.0,0 STARLINK-5050,1 53890U 22119E   23328.84131697  .00021191  00000-0  13446-2 0  9991,2 53890  53.2160  81.1722 0001479  69.0170 291.0980 15.08865225 65999,6917.803,95.436,540.691,538.645,0.0
53890.0,STARLINK-5050,PAYLOAD,2023-11-25 13:40:44,15.08872844,0.0001467,53.2163,77.902,62.1557,297.9584,0.0023165,0.00036805,0.0,0 STARLINK-5050,1 53890U 22119E   23329.56995570  .00036805  00000-0  23165-2 0  9996,2 53890  53.2163  77.9020 0001467  62.1557 297.9584 15.08872844 66100,6917.78,95.435,540.66,538.63,0.0
53890.0,STARLINK-5050,PAYLOAD,2023-11-25 20:02:15,15.0891367,0.0001475,53.2163,76.7121,70.8643,289.2509,0.0043,0.00068956,0.0,0 STARLINK-5050,1 53890U 22119E   23329.83490721  .00068956  00000-0  43000-2 0  9996,2 53890  53.2163  76.7121 0001475  70.8643 289.2509 15.08913670 66148,6917.655,95.433,540.541,538.5,0.0
53890.0,STARLINK-5050,PAYLOAD,2023-11-26 11:56:07,15.08865042,0.0001823,53.2168,73.7385,56.21,303.9066,0.0012542,0.00019743,0.0,0 STARLINK-5050,1 53890U 22119E   23330.49730617  .00019743  00000-0  12542-2 0  9998,2 53890  53.2168  73.7385 0001823  56.2100 303.9066 15.08865042 65820,6917.804,95.436,540.93,538.408,0.0
53890.0,STARLINK-5050,PAYLOAD,2023-11-26 13:31:30,15.08868729,0.0001987,53.2169,73.4412,54.08,306.0377,0.0015246,0.00024079,0.0,0 STARLINK-5050,1 53890U 22119E   23330.56354545  .00024079  00000-0  15246-2 0  9990,2 53890  53.2169  73.4412 0001987  54.0800 306.0377 15.08868729 66255,6917.793,95.436,541.032,538.283,0.0
53890.0,STARLINK-5050,PAYLOAD,2023-11-27 11:46:55,15.0880885,0.0001334,53.2175,69.2787,98.6816,261.4327,0.00082623,0.00012875,0.0,0 STARLINK-5050,1 53890U 22119E   23331.49091535  .00012875  00000-0  82623-3 0  9995,2 53890  53.2175  69.2787 0001334  98.6816 261.4327 15.08808850 65973,6917.976,95.44,540.763,538.918,0.0
53890.0,STARLINK-5050,PAYLOAD,2023-11-27 13:22:18,15.08812872,0.0001397,53.2176,68.9814,102.8867,257.2281,0.0016783,0.00026503,0.0,0 STARLINK-5050,1 53890U 22119E   23331.55715699  .00026503  00000-0  16783-2 0  9992,2 53890  53.2176  68.9814 0001397 102.8867 257.2281 15.08812872 66404,6917.963,95.439,540.795,538.862,0.0
53890.0,STARLINK-5050,PAYLOAD,2023-11-28 13:13:05,15.08862092,0.0001593,53.2188,64.5221,100.3428,259.7744,0.0015877,0.00025086,0.0,0 STARLINK-5050,1 53890U 22119E   23332.55075939  .00025086  00000-0  15877-2 0  9997,2 53890  53.2188  64.5221 0001593 100.3428 259.7744 15.08862092 66551,6917.813,95.436,540.78,538.576,0.0
53890.0,STARLINK-5050,PAYLOAD,2023-11-28 16:23:51,15.08865633,0.0001485,53.2184,63.9236,96.1868,263.9294,0.0013553,0.00021363,0.0,0 STARLINK-5050,1 53890U 22119E   23332.68323678  .00021363  00000-0  13553-2 0  9990,2 53890  53.2184  63.9236 0001485  96.1868 263.9294 15.08865633 66153,6917.802,95.436,540.694,538.64,0.0
53890.0,STARLINK-5050,PAYLOAD,2023-11-29 11:28:29,15.08847125,0.0001328,53.2177,60.3585,78.7785,281.3357,0.0011152,0.00017508,0.0,0 STARLINK-5050,1 53890U 22119E   23333.47812018  .00017508  00000-0  11152-2 0  9998,2 53890  53.2177  60.3585 0001328  78.7785 281.3357 15.08847125 66276,6917.859,95.437,540.642,538.805,0.0
53890.0,STARLINK-5050,PAYLOAD,2023-11-30 11:19:17,15.08840153,0.0001721,53.218,55.8959,65.9837,294.1335,0.0008582,0.00013397,0.0,0 STARLINK-5050,1 53890U 22119E   23334.47172645  .00013397  00000-0  85820-3 0  9990,2 53890  53.2180  55.8959 0001721  65.9837 294.1335 15.08840153 66426,6917.88,95.438,540.935,538.554,0.0
53890.0,STARLINK-5050,PAYLOAD,2023-12-01 11:10:03,15.0884792,0.0001882,53.217,51.437,122.2236,237.8939,0.00053144,8.182e-05,0.0,0 STARLINK-5050,1 53890U 22119E   23335.46532290  .00008182  00000-0  53144-3 0  9996,2 53890  53.2170  51.4370 0001882 122.2236 237.8939 15.08847920 66571,6917.856,95.437,541.023,538.419,0.0
53890.0,STARLINK-5050,PAYLOAD,2023-12-01 12:45:27,15.08828984,0.0001516,53.2167,51.1405,104.1416,255.9745,1.9283e-05,1.9e-07,0.0,0 STARLINK-5050,1 53890U 22119E   23335.53156638  .00000019  00000-0  19283-4 0  9990,2 53890  53.2167  51.1405 0001516 104.1416 255.9745 15.08828984 66582,6917.914,95.438,540.828,538.73,0.0
53890.0,STARLINK-5050,PAYLOAD,2023-12-01 23:53:08,15.08859335,0.0001465,53.2169,49.0596,90.2448,269.8712,0.00081818,0.00012764,0.0,0 STARLINK-5050,1 53890U 22119E   23335.99523708  .00012764  00000-0  81818-3 0  9998,2 53890  53.2169  49.0596 0001465  90.2448 269.8712 15.08859335 66654,6917.821,95.436,540.7,538.673,0.0
